APRIZESAT 2             
1 28366U 04025A   26165.43193229  .00000132  00000+0  54634-4 0  9990
2 28366  98.1011 331.5683 0104292 258.2655 100.6817 14.38034822151248
SAUDICOMSAT 1           
1 28369U 04025D   26165.26639914  .00000350  00000+0  91190-4 0  9990
2 28369  98.5772 175.3191 0032845  34.3884 325.9430 14.55471674163704
SAUDICOMSAT 2           
1 28370U 04025E   26165.29584458  .00000231  00000+0  71267-4 0  9998
2 28370  98.6642 177.4602 0054139 268.4401  91.0590 14.49979782159684
APRIZESAT 1             
1 28372U 04025G   26165.26215389  .00000199  00000+0  61045-4 0  9997
2 28372  98.6304 175.9081 0044926 162.6320 197.6423 14.51775632161483
NANOSAT-1               
1 28493U 04049B   26165.32984404  .00000907  00000+0  12672-3 0  9993
2 28493  98.2272 301.9210 0002949 315.3065  44.7908 14.80154534155021
SAUDICOMSAT 7           
1 31119U 07012C   26165.45107209  .00000390  00000+0  79014-4 0  9999
2 31119  98.3777 139.5268 0055100 203.8456 156.0193 14.66108000 22039
SAUDICOMSAT 6           
1 31121U 07012E   26165.42215929  .00000537  00000+0  11236-3 0  9992
2 31121  98.4098 132.8871 0071246 336.4530  23.3414 14.62555372 19784
SAUDICOMSAT 5           
1 31124U 07012H   26165.49649197  .00000531  00000+0  99927-4 0  9998
2 31124  98.3488 140.3209 0048325 132.9831 227.5440 14.68153379 23209
SAUDICOMSAT 3           
1 31125U 07012J   26165.46173883  .00000757  00000+0  13143-3 0  9995
2 31125  98.3143 140.8339 0040348  61.5772 298.9490 14.70701638 24427
SAUDICOMSAT 4           
1 31127U 07012L   26165.49006250  .00000407  00000+0  84756-4 0  9994
2 31127  98.3982 138.0055 0062042 266.8306  92.5796 14.64509879 20892
APRIZESAT 4             
1 35684U 09041D   26165.49234727  .00000561  00000+0  73582-4 0  9998
2 35684  98.1413 240.7591 0042570 331.9738  27.9183 14.83876102910969
APRIZESAT 3             
1 35686U 09041F   26165.42396589  .00001464  00000+0  13053-3 0  9997
2 35686  98.2055 318.5155 0062750  76.6419 284.1786 14.96233173915965
S-NET D                 
1 43186U 18014G   26165.49295891  .00005019  00000+0  25974-3 0  9997
2 43186  97.5371  70.3007 0009193  38.5698 321.6190 15.16650086458359
S-NET B                 
1 43187U 18014H   26165.30642462  .00004644  00000+0  24079-3 0  9996
2 43187  97.5379  70.1021 0009726  34.4282 325.7579 15.16618848458321
S-NET A                 
1 43188U 18014J   26165.22794560  .00005201  00000+0  26897-3 0  9995
2 43188  97.5388  70.2319 0009609  35.3723 324.8145 15.16655783458310
S-NET C                 
1 43189U 18014K   26165.24430764  .00004633  00000+0  24025-3 0  9990
2 43189  97.5403  70.3226 0010783  27.3893 332.7906 15.16610423456864
SALSAT                  
1 46495U 20068K   26165.46369228  .00007647  00000+0  26787-3 0  9990
2 46495  97.8844 168.3625 0008244 319.7381  40.3247 15.29766434314949
OOV-CUBE (TUBSAT-30)    
1 60240U 24128F   26165.46044471  .00002032  00000+0  16374-3 0  9999
2 60240  61.9947 235.0813 0044975 133.0813 227.4056 15.02764725105708
LPNTSAT-001 (IOD-1)     
1 68408U 26065A   26164.91380336  .00002794  00000+0  13816-3 0  9990
2 68408  97.4026  45.4930 0017030  21.8000 338.3955 15.18522908 11765
